ORBCOMM FM115           
1 41186U 15081H   24272.51776109  .00002791  00000+0  59454-3 0  9996
2 41186  46.9978 203.0985 0001019 296.4855  63.5927 14.61295744469488
ORBCOMM FM108           
1 41187U 15081J   24272.00658345  .00002162  00000+0  51256-3 0  9996
2 41187  47.0043 264.3092 0001766 197.9399 162.1424 14.57065755468546
ORBCOMM FM117           
1 41188U 15081K   24272.45283089  .00002215  00000+0  52411-3 0  9998
2 41188  46.9991 261.0560 0002631 212.8593 147.2129 14.57070880468659
ORBCOMM FM116           
1 41189U 15081L   24272.57979067  .00003158  00000+0  73093-3 0  9996
2 41189  47.0027 350.2940 0003228 279.5458  80.5063 14.57099221467484
